{
  "type": "FeatureCollection",
  "features": [
    {
      "type": "Feature",
      "properties": {
        "norad_id": 37967,
        "name": "COSMOS 2251 DEB",
        "group": "cosmos-2251-debris",
        "lat": -66.62038616529624,
        "lon": -26.706994335254752,
        "alt_km": 655.8033609248068,
        "timestamp": "2025-12-26T13:39:19.377968+00:00",
        "meta_object_name": "COSMOS 2251 DEB",
        "meta_object_id": "1993-036BPS",
        "meta_epoch": "2025-12-25T14:48:50.438880",
        "meta_mean_motion": 14.4066325,
        "meta_eccentricity": 0.0151034,
        "meta_inclination": 74.0157,
        "meta_ra_of_asc_node": 113.525,
        "meta_arg_of_pericenter": 249.5941,
        "meta_mean_anomaly": 108.8939,
        "meta_ephemeris_type": 0,
        "meta_classification_type": "U",
        "meta_norad_cat_id": 37967,
        "meta_element_set_no": 999,
        "meta_rev_at_epoch": 64921,
        "meta_bstar": 0.0020469,
        "meta_mean_motion_dot": 7.459e-05,
        "meta_mean_motion_ddot": 0,
        "tle_line1": "1 37967U 93036BPS 25359.61725045  .00007459  00000+0  20469-2 0  9994",
        "tle_line2": "2 37967  74.0157 113.5250 0151034 249.5941 108.8939 14.40663250649214"
      },
      "geometry": {
        "type": "Point",
        "coordinates": [
          -26.706994335254752,
          -66.62038616529624
        ]
      }
    },
    {
      "type": "Feature",
      "properties": {
        "norad_id": 37968,
        "name": "COSMOS 2251 DEB",
        "group": "cosmos-2251-debris",
        "lat": 21.274955283793833,
        "lon": 56.543982811454455,
        "alt_km": 616.9369105253609,
        "timestamp": "2025-12-26T13:39:19.377978+00:00",
        "meta_object_name": "COSMOS 2251 DEB",
        "meta_object_id": "1993-036BPT",
        "meta_epoch": "2025-12-21T00:10:33.901248",
        "meta_mean_motion": 15.00806785,
        "meta_eccentricity": 0.00805513,
        "meta_inclination": 74.0006,
        "meta_ra_of_asc_node": 254.2977,
        "meta_arg_of_pericenter": 7.8808,
        "meta_mean_anomaly": 352.3622,
        "meta_ephemeris_type": 0,
        "meta_classification_type": "U",
        "meta_norad_cat_id": 37968,
        "meta_element_set_no": 999,
        "meta_rev_at_epoch": 60343,
        "meta_bstar": 0.00064941669,
        "meta_mean_motion_dot": 8.807e-05,
        "meta_mean_motion_ddot": 0,
        "tle_line1": "1 37968U 93036BPT 25355.00733682  .00008807  00000+0  64942-3 0  9993",
        "tle_line2": "2 37968  74.0006 254.2977 0080551   7.8808 352.3622 15.00806785603437"
      },
      "geometry": {
        "type": "Point",
        "coordinates": [
          56.543982811454455,
          21.274955283793833
        ]
      }
    },
    {
      "type": "Feature",
      "properties": {
        "norad_id": 37971,
        "name": "COSMOS 2251 DEB",
        "group": "cosmos-2251-debris",
        "lat": 6.013665758067797,
        "lon": 17.49007955910135,
        "alt_km": 769.8823274772221,
        "timestamp": "2025-12-26T13:39:19.377989+00:00",
        "meta_object_name": "COSMOS 2251 DEB",
        "meta_object_id": "1993-036BPW",
        "meta_epoch": "2025-12-21T19:16:34.897152",
        "meta_mean_motion": 14.48757325,
        "meta_eccentricity": 0.00659406,
        "meta_inclination": 73.9924,
        "meta_ra_of_asc_node": 24.7096,
        "meta_arg_of_pericenter": 161.9609,
        "meta_mean_anomaly": 198.3914,
        "meta_ephemeris_type": 0,
        "meta_classification_type": "U",
        "meta_norad_cat_id": 37971,
        "meta_element_set_no": 999,
        "meta_rev_at_epoch": 60809,
        "meta_bstar": 0.0013046337,
        "meta_mean_motion_dot": 5.035e-05,
        "meta_mean_motion_ddot": 0,
        "tle_line1": "1 37971U 93036BPW 25355.80318168  .00005035  00000+0  13046-2 0  9991",
        "tle_line2": "2 37971  73.9924  24.7096 0065940 161.9609 198.3914 14.48757325608091"
      },
      "geometry": {
        "type": "Point",
        "coordinates": [
          17.49007955910135,
          6.013665758067797
        ]
      }
    },
    {
      "type": "Feature",
      "properties": {
        "norad_id": 37975,
        "name": "COSMOS 2251 DEB",
        "group": "cosmos-2251-debris",
        "lat": -9.30483619028631,
        "lon": 119.61639785104798,
        "alt_km": 647.0953572500666,
        "timestamp": "2025-12-26T13:39:19.378000+00:00",
        "meta_object_name": "COSMOS 2251 DEB",
        "meta_object_id": "1993-036BQA",
        "meta_epoch": "2025-12-24T13:38:18.210912",
        "meta_mean_motion": 14.76642504,
        "meta_eccentricity": 0.00942439,
        "meta_inclination": 74.0025,
        "meta_ra_of_asc_node": 300.8495,
        "meta_arg_of_pericenter": 287.7537,
        "meta_mean_anomaly": 71.3369,
        "meta_ephemeris_type": 0,
        "meta_classification_type": "U",
        "meta_norad_cat_id": 37975,
        "meta_element_set_no": 999,
        "meta_rev_at_epoch": 69920,
        "meta_bstar": 0.0036103843,
        "meta_mean_motion_dot": 0.00027223,
        "meta_mean_motion_ddot": 0,
        "tle_line1": "1 37975U 93036BQA 25358.56826633  .00027223  00000+0  36104-2 0  9995",
        "tle_line2": "2 37975  74.0025 300.8495 0094243 287.7537  71.3369 14.76642504699205"
      },
      "geometry": {
        "type": "Point",
        "coordinates": [
          119.61639785104798,
          -9.30483619028631
        ]
      }
    },
    {
      "type": "Feature",
      "properties": {
        "norad_id": 37985,
        "name": "COSMOS 2251 DEB",
        "group": "cosmos-2251-debris",
        "lat": 21.595603111649535,
        "lon": -113.13331335187448,
        "alt_km": 758.8629651250867,
        "timestamp": "2025-12-26T13:39:19.378011+00:00",
        "meta_object_name": "COSMOS 2251 DEB",
        "meta_object_id": "1993-036BQL",
        "meta_epoch": "2025-12-24T23:04:55.384032",
        "meta_mean_motion": 14.3548661,
        "meta_eccentricity": 0.00213169,
        "meta_inclination": 74.0246,
        "meta_ra_of_asc_node": 243.3046,
        "meta_arg_of_pericenter": 2.8106,
        "meta_mean_anomaly": 357.3162,
        "meta_ephemeris_type": 0,
        "meta_classification_type": "U",
        "meta_norad_cat_id": 37985,
        "meta_element_set_no": 999,
        "meta_rev_at_epoch": 65092,
        "meta_bstar": 4.6643304e-05,
        "meta_mean_motion_dot": 1.08e-06,
        "meta_mean_motion_ddot": 0,
        "tle_line1": "1 37985U 93036BQL 25358.96175213  .00000108  00000+0  46643-4 0  9995",
        "tle_line2": "2 37985  74.0246 243.3046 0021316   2.8106 357.3162 14.35486610650926"
      },
      "geometry": {
        "type": "Point",
        "coordinates": [
          -113.13331335187448,
          21.595603111649535
        ]
      }
    },
    {
      "type": "Feature",
      "properties": {
        "norad_id": 37988,
        "name": "COSMOS 2251 DEB",
        "group": "cosmos-2251-debris",
        "lat": -61.96384118189617,
        "lon": -150.24234232588282,
        "alt_km": 707.4266558406262,
        "timestamp": "2025-12-26T13:39:19.378021+00:00",
        "meta_object_name": "COSMOS 2251 DEB",
        "meta_object_id": "1993-036BQP",
        "meta_epoch": "2025-12-19T02:22:34.688640",
        "meta_mean_motion": 14.6891967,
        "meta_eccentricity": 0.00635463,
        "meta_inclination": 74.062,
        "meta_ra_of_asc_node": 11.7337,
        "meta_arg_of_pericenter": 47.3595,
        "meta_mean_anomaly": 313.2907,
        "meta_ephemeris_type": 0,
        "meta_classification_type": "U",
        "meta_norad_cat_id": 37988,
        "meta_element_set_no": 999,
        "meta_rev_at_epoch": 23489,
        "meta_bstar": 0.00064166354,
        "meta_mean_motion_dot": 3.842e-05,
        "meta_mean_motion_ddot": 0,
        "tle_line1": "1 37988U 93036BQP 25353.09901260  .00003842  00000+0  64166-3 0  9993",
        "tle_line2": "2 37988  74.0620  11.7337 0063546  47.3595 313.2907 14.68919670234897"
      },
      "geometry": {
        "type": "Point",
        "coordinates": [
          -150.24234232588282,
          -61.96384118189617
        ]
      }
    },
    {
      "type": "Feature",
      "properties": {
        "norad_id": 37993,
        "name": "COSMOS 2251 DEB",
        "group": "cosmos-2251-debris",
        "lat": -55.87642451586509,
        "lon": 115.49545152504352,
        "alt_km": 695.4177147044029,
        "timestamp": "2025-12-26T13:39:19.378031+00:00",
        "meta_object_name": "COSMOS 2251 DEB",
        "meta_object_id": "1993-036BQU",
        "meta_epoch": "2025-12-17T04:37:52.855104",
        "meta_mean_motion": 14.59966404,
        "meta_eccentricity": 0.00218755,
        "meta_inclination": 74.021,
        "meta_ra_of_asc_node": 158.4097,
        "meta_arg_of_pericenter": 246.7183,
        "meta_mean_anomaly": 113.168,
        "meta_ephemeris_type": 0,
        "meta_classification_type": "U",
        "meta_norad_cat_id": 37993,
        "meta_element_set_no": 999,
        "meta_rev_at_epoch": 65382,
        "meta_bstar": 0.0010496489,
        "meta_mean_motion_dot": 5.024e-05,
        "meta_mean_motion_ddot": 0,
        "tle_line1": "1 37993U 93036BQU 25351.19297286  .00005024  00000+0  10496-2 0  9994",
        "tle_line2": "2 37993  74.0210 158.4097 0021875 246.7183 113.1680 14.59966404653827"
      },
      "geometry": {
        "type": "Point",
        "coordinates": [
          115.49545152504352,
          -55.87642451586509
        ]
      }
    }
  ]
}